NORAD_CAT_ID,OBJECT_NAME,OBJECT_TYPE,EPOCH,MEAN_MOTION,ECCENTRICITY,INCLINATION,RA_OF_ASC_NODE,ARG_OF_PERICENTER,MEAN_ANOMALY,BSTAR,MEAN_MOTION_DOT,MEAN_MOTION_DDOT,TLE_LINE0,TLE_LINE1,TLE_LINE2,SEMIMAJOR_AXIS,PERIOD,APOGEE,PERIGEE,DECAYED
49743.0,STARLINK-3239,PAYLOAD,2023-01-24 10:18:35,15.08839796,0.0001224,53.2149,227.9498,75.4545,284.6583,0.00017211,2.452e-05,0.0,0 STARLINK-3239,1 49743U 21115V   23024.42957656  .00002452  00000-0  17211-3 0  9990,2 49743  53.2149 227.9498 0001224  75.4545 284.6583 15.08839796 64500,6917.880999999999,95.438,540.5930000000001,538.899,0.0
49743.0,STARLINK-3239,PAYLOAD,2023-01-25 13:20:08,15.08839351,0.0001189,53.2157,222.8935,82.9861,277.1266,5.4463e-05,5.79e-06,0.0,0 STARLINK-3239,1 49743U 21115V   23025.55565800  .00000579  00000-0  54463-4 0  9990,2 49743  53.2157 222.8935 0001189  82.9861 277.1266 15.08839351 64673,6917.882,95.438,540.57,538.925,0.0
49743.0,STARLINK-3239,PAYLOAD,2023-01-25 19:41:41,15.08841818,0.0001214,53.2156,221.7041,83.5466,276.5664,5.658e-05,6.13e-06,0.0,0 STARLINK-3239,1 49743U 21115V   23025.82061550  .00000613  00000-0  56580-4 0  9994,2 49743  53.2156 221.7041 0001214  83.5466 276.5664 15.08841818 63603,6917.875,95.437,540.58,538.9,0.0
49743.0,STARLINK-3239,PAYLOAD,2023-01-26 11:35:32,15.08839491,0.0001240999999999,53.2154,218.7298,83.7622,276.3512,0.00011026,1.467e-05,0.0,0 STARLINK-3239,1 49743U 21115V   23026.48301502  .00001467  00000-0  11026-3 0  9994,2 49743  53.2154 218.7298 0001241  83.7622 276.3512 15.08839491 63702,6917.882,95.438,540.605,538.888,0.0
49743.0,STARLINK-3239,PAYLOAD,2023-01-26 19:32:28,15.08841671,0.0001244,53.2154,217.2427,83.7619,276.3515,0.00011962,1.616e-05,0.0,0 STARLINK-3239,1 49743U 21115V   23026.81421367  .00001616  00000-0  11962-3 0  9998,2 49743  53.2154 217.2427 0001244  83.7619 276.3515 15.08841671 64863,6917.875,95.437,540.601,538.88,0.0
49743.0,STARLINK-3239,PAYLOAD,2023-01-27 05:04:47,15.08837471,0.0001252999999999,53.2153,215.4585,82.3976,277.7159,5.4082e-05,5.73e-06,0.0,0 STARLINK-3239,1 49743U 21115V   23027.21165751  .00000573  00000-0  54082-4 0  9997,2 49743  53.2153 215.4585 0001253  82.3976 277.7159 15.08837471 64927,6917.888000000001,95.438,540.62,538.886,0.0
49743.0,STARLINK-3239,PAYLOAD,2023-01-27 17:47:53,15.08823404,0.0001223,53.2157,213.0792,81.2409,278.8721,0.00012226,1.658e-05,0.0,0 STARLINK-3239,1 49743U 21115V   23027.74158666  .00001658  00000-0  12226-3 0  9990,2 49743  53.2157 213.0792 0001223  81.2409 278.8721 15.08823404 65009,6917.931,95.439,540.6419999999999,538.95,0.0
49743.0,STARLINK-3239,PAYLOAD,2023-01-28 20:49:25,15.0884298,0.0001253,53.2162,208.0243,81.8064,278.307,4.6766e-05,4.57e-06,0.0,0 STARLINK-3239,1 49743U 21115V   23028.86765626  .00000457  00000-0  46766-4 0  9997,2 49743  53.2162 208.0243 0001253  81.8064 278.3070 15.08842980 65176,6917.871,95.437,540.603,538.869,0.0
49743.0,STARLINK-3239,PAYLOAD,2023-01-29 19:04:49,15.08837844,0.0001133,53.2163,203.8609,88.2154,271.8968,6.7593e-05,7.88e-06,0.0,0 STARLINK-3239,1 49743U 21115V   23029.79501982  .00000788  00000-0  67593-4 0  9991,2 49743  53.2163 203.8609 0001133  88.2154 271.8968 15.08837844 65317,6917.887,95.438,540.536,538.968,0.0
49743.0,STARLINK-3239,PAYLOAD,2023-01-30 10:58:41,15.08841187,0.0001155,53.2163,200.8874,85.6824,274.43,2.2729e-05,7.4e-07,0.0,0 STARLINK-3239,1 49743U 21115V   23030.45741988  .00000074  00000-0  22729-4 0  9998,2 49743  53.2163 200.8874 0001155  85.6824 274.4300 15.08841187 64309,6917.877,95.437,540.541,538.943,0.0
49743.0,STARLINK-3239,PAYLOAD,2023-01-30 20:30:59,15.08843989,0.0001153,53.2162,199.1031,85.258,274.8544,4.2057e-05,3.82e-06,0.0,0 STARLINK-3239,1 49743U 21115V   23030.85485668  .00000382  00000-0  42057-4 0  9990,2 49743  53.2162 199.1031 0001153  85.2580 274.8544 15.08843989 65471,6917.868,95.437,540.531,538.936,0.0
49743.0,STARLINK-3239,PAYLOAD,2023-01-31 04:27:55,15.08836955,0.0001148,53.2159,197.6158,84.7138,275.3985,4.2518e-07,-2.81e-06,0.0,0 STARLINK-3239,1 49743U 21115V   23031.18606223 -.00000281  00000-0  42518-6 0  9992,2 49743  53.2159 197.6158 0001148  84.7138 275.3985 15.08836955 65523,6917.89,95.438,540.549,538.961,0.0
49743.0,STARLINK-3239,PAYLOAD,2023-01-31 18:46:23,15.088397,0.0001027,53.2162,194.9388,85.5916,274.5193,3.2382e-05,2.28e-06,0.0,0 STARLINK-3239,1 49743U 21115V   23031.78221967  .00000228  00000-0  32382-4 0  9992,2 49743  53.2162 194.9388 0001027  85.5916 274.5193 15.08839700 64501,6917.881,95.438,540.457,539.036,0.0
49743.0,STARLINK-3239,PAYLOAD,2023-02-01 04:18:42,15.08840446,0.000119,53.2155,193.1551,83.8744,276.2383,4.3678e-05,4.07e-06,0.0,0 STARLINK-3239,1 49743U 21115V   23032.17965934  .00000407  00000-0  43678-4 0  9994,2 49743  53.2155 193.1551 0001190  83.8744 276.2383 15.08840446 64562,6917.879,95.438,540.567,538.921,0.0
49743.0,STARLINK-3239,PAYLOAD,2023-02-01 20:12:33,15.08845725,0.0001542,53.2149,190.1798,87.5933,272.5235,7.8016e-05,9.54e-06,0.0,0 STARLINK-3239,1 49743U 21115V   23032.84205505  .00000954  00000-0  78016-4 0  9990,2 49743  53.2149 190.1798 0001542  87.5933 272.5235 15.08845725 65771,6917.863,95.437,540.795,538.661,0.0
49743.0,STARLINK-3239,PAYLOAD,2023-02-02 10:31:02,15.08845581,0.0003,53.2094,187.5032,89.9112,270.2224,8.4968e-05,1.064e-05,0.0,0 STARLINK-3239,1 49743U 21115V   23033.43821888  .00001064  00000-0  84968-4 0  9990,2 49743  53.2094 187.5032 0003000  89.9112 270.2224 15.08845581 64757,6917.863,95.437,541.804,537.653,0.0
49743.0,STARLINK-3239,PAYLOAD,2023-02-02 18:27:58,15.08838357,0.0001385,53.2162,186.0188,74.8345,285.28,2.7616e-05,1.52e-06,0.0,0 STARLINK-3239,1 49743U 21115V   23033.76942164  .00000152  00000-0  27616-4 0  9991,2 49743  53.2162 186.0188 0001385  74.8345 285.2800 15.08838357 65912,6917.885,95.438,540.709,538.792,0.0
49743.0,STARLINK-3239,PAYLOAD,2023-02-03 08:46:26,15.08836504,0.0001602,53.2143,183.3435,79.2018,280.9154,-1.3794e-05,-5.08e-06,0.0,0 STARLINK-3239,1 49743U 21115V   23034.36558597 -.00000508  00000-0 -13794-4 0  9990,2 49743  53.2143 183.3435 0001602  79.2018 280.9154 15.08836504 64896,6917.891,95.438,540.864,538.648,0.0
49743.0,STARLINK-3239,PAYLOAD,2023-02-03 15:07:59,15.08833079,0.0001443,53.2155,182.1555,66.298,293.8163,-3.4503e-05,-8.37e-06,0.0,0 STARLINK-3239,1 49743U 21115V   23034.63054943 -.00000837  00000-0 -34503-4 0  9992,2 49743  53.2155 182.1555 0001443  66.2980 293.8163 15.08833079 66042,6917.902,95.438,540.765,538.768,0.0
49743.0,STARLINK-3239,PAYLOAD,2023-02-04 13:23:22,15.08836984,0.0001467,53.216,177.9897,96.279,263.837,0.00012405,1.687e-05,0.0,0 STARLINK-3239,1 49743U 21115V   23035.55790317  .00001687  00000-0  12405-3 0  9994,2 49743  53.2160 177.9897 0001467  96.2790 263.8370 15.08836984 66187,6917.89,95.438,540.769,538.74,0.0
49743.0,STARLINK-3239,PAYLOAD,2023-02-04 16:34:08,15.08844447,0.0001159,53.2163,177.3954,89.9743,270.1382,9.4915e-05,1.223e-05,0.0,0 STARLINK-3239,1 49743U 21115V   23035.69037946  .00001223  00000-0  94915-4 0  9994,2 49743  53.2163 177.3954 0001159  89.9743 270.1382 15.08844447 65099,6917.867,95.437,540.534,538.93,0.0
49743.0,STARLINK-3239,PAYLOAD,2023-02-05 14:49:33,15.0883188,0.0001421,53.2172,173.234,91.5091,268.6063,4.5356e-05,4.34e-06,0.0,0 STARLINK-3239,1 49743U 21115V   23036.61775319  .00000434  00000-0  45356-4 0  9998,2 49743  53.2172 173.2340 0001421  91.5091 268.6063 15.08831880 66344,6917.905,95.438,540.753,538.787,0.0
49743.0,STARLINK-3239,PAYLOAD,2023-02-05 18:00:19,15.08838401,0.0001244,53.2165,172.6375,92.1626,267.9509,6.3954e-05,7.3e-06,0.0,0 STARLINK-3239,1 49743U 21115V   23036.75022818  .00000730  00000-0  63954-4 0  9995,2 49743  53.2165 172.6375 0001244  92.1626 267.9509 15.08838401 65253,6917.885,95.438,540.611,538.89,0.0
49743.0,STARLINK-3239,PAYLOAD,2023-02-06 13:04:57,15.08846234,0.0001366,53.2171,169.0703,95.7005,264.4143,9.8242e-05,1.276e-05,0.0,0 STARLINK-3239,1 49743U 21115V   23037.54510422  .00001276  00000-0  98242-4 0  9990,2 49743  53.2171 169.0703 0001366  95.7005 264.4143 15.08846234 65372,6917.861,95.437,540.671,538.781,0.0
49743.0,STARLINK-3239,PAYLOAD,2023-02-06 16:15:42,15.08851595,0.0001356,53.2172,168.4744,100.4591,259.6554,0.00012147,1.646e-05,0.0,0 STARLINK-3239,1 49743U 21115V   23037.67758049  .00001646  00000-0  12147-3 0  9993,2 49743  53.2172 168.4744 0001356 100.4591 259.6554 15.08851595 66508,6917.845,95.437,540.648,538.772,0.0
49743.0,STARLINK-3239,PAYLOAD,2023-02-07 01:48:02,15.08845826,0.000146,53.2175,166.691,77.4527,282.6628,0.00011906,1.608e-05,0.0,0 STARLINK-3239,1 49743U 21115V   23038.07502386  .00001608  00000-0  11906-3 0  9999,2 49743  53.2175 166.6910 0001460  77.4527 282.6628 15.08845826 66568,6917.863,95.437,540.738,538.718,0.0
49743.0,STARLINK-3239,PAYLOAD,2023-02-07 14:31:06,15.08848017,0.0001566,53.2172,164.3115,85.1242,274.9929,0.00016257,2.301e-05,0.0,0 STARLINK-3239,1 49743U 21115V   23038.60494167  .00002301  00000-0  16257-3 0  9990,2 49743  53.2172 164.3115 0001566  85.1242 274.9929 15.08848017 65533,6917.856,95.437,540.804,538.638,0.0
49743.0,STARLINK-3239,PAYLOAD,2023-02-07 16:06:29,15.08852965,0.0001474,53.2163,164.0134,81.4678,278.6482,0.00019321,2.789e-05,0.0,0 STARLINK-3239,1 49743U 21115V   23038.67117711  .00002789  00000-0  19321-3 0  9999,2 49743  53.2163 164.0134 0001474  81.4678 278.6482 15.08852965 65544,6917.841,95.437,540.725,538.686,0.0
49743.0,STARLINK-3239,PAYLOAD,2023-02-08 12:46:31,15.08840708,0.0001706,53.2154,160.1483,92.7915,267.3272,6.8147e-06,-1.8e-06,0.0,0 STARLINK-3239,1 49743U 21115V   23039.53230610 -.00000180  00000-0  68147-5 0  9995,2 49743  53.2154 160.1483 0001706  92.7915 267.3272 15.08840708 65673,6917.878,95.438,540.923,538.563,0.0
49743.0,STARLINK-3239,PAYLOAD,2023-02-08 14:21:54,15.08841199,0.0001437,53.2165,159.854,82.2331,277.8824,-6.8921e-05,-1.385e-05,0.0,0 STARLINK-3239,1 49743U 21115V   23039.59854635 -.00001385  00000-0 -68921-4 0  9998,2 49743  53.2165 159.8540 0001437  82.2331 277.8824 15.08841199 66799,6917.877,95.437,540.736,538.748,0.0
